[{"OBJECT_NAME":"CUTE-1 (CO-55)","OBJECT_ID":"2003-031E","EPOCH":"2026-03-09T23:38:51.813024","MEAN_MOTION":14.24266468,"ECCENTRICITY":0.00106777,"INCLINATION":98.6777,"RA_OF_ASC_NODE":78.7801,"ARG_OF_PERICENTER":111.7093,"MEAN_ANOMALY":248.5223,"EPHEMERIS_TYPE":0,"CLASSIFICATION_TYPE":"U","NORAD_CAT_ID":27844,"ELEMENT_SET_NO":999,"REV_AT_EPOCH":17755,"BSTAR":0.00020468113,"MEAN_MOTION_DOT":4.29e-6,"MEAN_MOTION_DDOT":0},{"OBJECT_NAME":"CZ-6A DEB","OBJECT_ID":"2024-140MS","EPOCH":"2026-03-09T13:13:00.715008","MEAN_MOTION":14.1970089,"ECCENTRICITY":0.00506663,"INCLINATION":89.0124,"RA_OF_ASC_NODE":287.1548,"ARG_OF_PERICENTER":138.7948,"MEAN_ANOMALY":221.7084,"EPHEMERIS_TYPE":0,"CLASSIFICATION_TYPE":"U","NORAD_CAT_ID":61076,"ELEMENT_SET_NO":999,"REV_AT_EPOCH":8001,"BSTAR":0.00047426649,"MEAN_MOTION_DOT":1.03e-5,"MEAN_MOTION_DDOT":0}]
